COMMENT,ORIGINATOR,NORAD_CAT_ID,OBJECT_NAME,OBJECT_TYPE,CLASSIFICATION_TYPE,INTLDES,EPOCH,EPOCH_MICROSECONDS,MEAN_MOTION,ECCENTRICITY,INCLINATION,RA_OF_ASC_NODE,ARG_OF_PERICENTER,MEAN_ANOMALY,EPHEMERIS_TYPE,ELEMENT_SET_NO,REV_AT_EPOCH,BSTAR,MEAN_MOTION_DOT,MEAN_MOTION_DDOT,FILE,TLE_LINE0,TLE_LINE1,TLE_LINE2,OBJECT_ID,OBJECT_NUMBER,SEMIMAJOR_AXIS,PERIOD,APOGEE,PERIGEE,DECAYED
"GENERATED VIA SPACETRACK.ORG API","18 SPCS","55101","SPACEBEE-159","PAYLOAD","U","23001CW","2023-11-28 16:25:37","998912","15.29278152","0.0014265","97.4544","32.2211","141.2977","218.9288","0","999","5016","0.0014373","0.00041046","0","4112152","0 SPACEBEE-159","1 55101U 23001CW  23332.68446758  .00041046  00000-0  14373-2 0  9994","2 55101  97.4544  32.2211 0014265 141.2977 218.9288 15.29278152 50169","2023-001CW","55101","6856.106","94.162","487.751","468.191","0"
"GENERATED VIA SPACETRACK.ORG API","18 SPCS","55101","SPACEBEE-159","PAYLOAD","U","23001CW","2023-11-28 16:25:37","998912","15.29278152","0.0014265","97.4544","32.2211","141.2977","218.9288","0","999","5016","0.0014373","0.00041046","0","4112264","0 SPACEBEE-159","1 55101U 23001CW  23332.68446758  .00041046  00000-0  14373-2 0  9994","2 55101  97.4544  32.2211 0014265 141.2977 218.9288 15.29278152 50169","2023-001CW","55101","6856.106","94.162","487.751","468.191","0"
"GENERATED VIA SPACETRACK.ORG API","18 SPCS","55101","SPACEBEE-159","PAYLOAD","U","23001CW","2023-11-29 03:25:10","976160","15.29321768","0.001409","97.4541","32.6797","139.7311","220.4976","0","999","5023","0.0015616","0.0004468","0","4113103","0 SPACEBEE-159","1 55101U 23001CW  23333.14248815  .00044680  00000-0  15616-2 0  9998","2 55101  97.4541  32.6797 0014090 139.7311 220.4976 15.29321768 50231","2023-001CW","55101","6855.976","94.159","487.501","468.180","0"
"GENERATED VIA SPACETRACK.ORG API","18 SPCS","55101","SPACEBEE-159","PAYLOAD","U","23001CW","2023-11-29 17:33:08","914752","15.2937588","0.0014123","97.4539","33.2698","137.894","222.3387","0","999","5032","0.0015574","0.00044634","0","4113593","0 SPACEBEE-159","1 55101U 23001CW  23333.73135318  .00044634  00000-0  15574-2 0  9998","2 55101  97.4539  33.2698 0014123 137.8940 222.3387 15.29375880 50320","2023-001CW","55101","6855.814","94.156","487.361","467.996","0"
"GENERATED VIA SPACETRACK.ORG API","18 SPCS","55101","SPACEBEE-159","PAYLOAD","U","23001CW","2023-12-01 04:05:49","941888","15.29500699","0.001425","97.4537","34.7122","132.848","227.396","0","999","5054","0.0014708","0.00042299","0","4115795","0 SPACEBEE-159","1 55101U 23001CW  23335.17071692  .00042299  00000-0  14708-2 0  9995","2 55101  97.4537  34.7122 0014250 132.8480 227.3960 15.29500699 50545","2023-001CW","55101","6855.441","94.148","487.075","467.537","0"
"GENERATED VIA SPACETRACK.ORG API","18 SPCS","55101","SPACEBEE-159","PAYLOAD","U","23001CW","2023-12-01 16:39:29","425248","15.2955881","0.001431","97.4536","35.2367","131.1466","229.1011","0","999","5062","0.0018066","0.00052136","0","4116926","0 SPACEBEE-159","1 55101U 23001CW  23335.69409057  .00052136  00000-0  18066-2 0  9994","2 55101  97.4536  35.2367 0014310 131.1466 229.1011 15.29558810 50628","2023-001CW","55101","6855.267","94.145","486.942","467.322","0"
"GENERATED VIA SPACETRACK.ORG API","18 SPCS","55101","SPACEBEE-159","PAYLOAD","U","23001CW","2023-12-01 16:39:29","425248","15.2955881","0.001431","97.4536","35.2367","131.1466","229.1011","0","999","5062","0.0018066","0.00052136","0","4116981","0 SPACEBEE-159","1 55101U 23001CW  23335.69409057  .00052136  00000-0  18066-2 0  9994","2 55101  97.4536  35.2367 0014310 131.1466 229.1011 15.29558810 50628","2023-001CW","55101","6855.267","94.145","486.942","467.322","0"
"GENERATED VIA SPACETRACK.ORG API","18 SPCS","55101","SPACEBEE-159","PAYLOAD","U","23001CW","2023-12-02 03:38:54","840768","15.29651275","0.0014288","97.4531","35.6956","129.4909","230.7598","0","999","5069","0.0035154","0.0010248","0","4118449","0 SPACEBEE-159","1 55101U 23001CW  23336.15202362  .00102480  00000-0  35154-2 0  9991","2 55101  97.4531  35.6956 0014288 129.4909 230.7598 15.29651275 50691","2023-001CW","55101","6854.991","94.139","486.650","467.062","0"
"GENERATED VIA SPACETRACK.ORG API","18 SPCS","55101","SPACEBEE-159","PAYLOAD","U","23001CW","2023-12-02 03:38:54","840768","15.29651275","0.0014288","97.4531","35.6956","129.4909","230.7598","0","999","5069","0.0035154","0.0010248","0","4118466","0 SPACEBEE-159","1 55101U 23001CW  23336.15202362  .00102480  00000-0  35154-2 0  9991","2 55101  97.4531  35.6956 0014288 129.4909 230.7598 15.29651275 50691","2023-001CW","55101","6854.991","94.139","486.650","467.062","0"
"GENERATED VIA SPACETRACK.ORG API","18 SPCS","55101","SPACEBEE-159","PAYLOAD","U","23001CW","2023-12-02 16:12:30","535488","15.2967757","0.0014218","97.4529","36.2202","127.8755","232.3774","0","999","5077","0.0010857","0.00031329","0","4119185","0 SPACEBEE-159","1 55101U 23001CW  23336.67535342  .00031329  00000-0  10857-2 0  9991","2 55101  97.4529  36.2202 0014218 127.8755 232.3774 15.29677570 50772","2023-001CW","55101","6854.912","94.137","486.524","467.031","0"
"GENERATED VIA SPACETRACK.ORG API","18 SPCS","55101","SPACEBEE-159","PAYLOAD","U","23001CW","2023-12-02 16:12:30","535488","15.2967757","0.0014218","97.4529","36.2202","127.8755","232.3774","0","999","5077","0.0010857","0.00031329","0","4119201","0 SPACEBEE-159","1 55101U 23001CW  23336.67535342  .00031329  00000-0  10857-2 0  9991","2 55101  97.4529  36.2202 0014218 127.8755 232.3774 15.29677570 50772","2023-001CW","55101","6854.912","94.137","486.524","467.031","0"
"GENERATED VIA SPACETRACK.ORG API","18 SPCS","55101","SPACEBEE-159","PAYLOAD","U","23001CW","2023-12-03 14:11:14","968608","15.2974939","0.0014207","97.4531","37.138","125.0295","235.228","0","999","5091","0.0012187","0.00035272","0","4120389","0 SPACEBEE-159","1 55101U 23001CW  23337.59114547  .00035272  00000-0  12187-2 0  9992","2 55101  97.4531  37.1380 0014207 125.0295 235.2280 15.29749390 50919","2023-001CW","55101","6854.698","94.133","486.301","466.824","0"
"GENERATED VIA SPACETRACK.ORG API","18 SPCS","55101","SPACEBEE-159","PAYLOAD","U","23001CW","2023-12-03 20:28:01","400736","15.29764863","0.0014255","97.453","37.4008","124.0902","236.1693","0","999","5095","0.0011853","0.00034316","0","4121006","0 SPACEBEE-159","1 55101U 23001CW  23337.85279399  .00034316  00000-0  11853-2 0  9995","2 55101  97.4530  37.4008 0014255 124.0902 236.1693 15.29764863 50959","2023-001CW","55101","6854.652","94.132","486.288","466.745","0"
"GENERATED VIA SPACETRACK.ORG API","18 SPCS","55101","SPACEBEE-159","PAYLOAD","U","23001CW","2023-12-04 02:44:47","574528","15.29780632","0.0014227","97.4532","37.6631","123.0811","237.1798","0","999","5099","0.0011022","0.0003191","0","4122164","0 SPACEBEE-159","1 55101U 23001CW  23338.11443952  .00031910  00000-0  11022-2 0  9998","2 55101  97.4532  37.6631 0014227 123.0811 237.1798 15.29780632 50995","2023-001CW","55101","6854.605","94.131","486.222","466.717","0"
"GENERATED VIA SPACETRACK.ORG API","18 SPCS","55101","SPACEBEE-159","PAYLOAD","U","23001CW","2023-12-05 03:51:49","813344","15.29847151","0.0014295","97.4533","38.7126","119.6113","240.6554","0","999","5115","0.0011043","0.00032038","0","4123143","0 SPACEBEE-159","1 55101U 23001CW  23339.16099321  .00032038  00000-0  11043-2 0  9996","2 55101  97.4533  38.7126 0014295 119.6113 240.6554 15.29847151 51156","2023-001CW","55101","6854.406","94.127","486.069","466.472","0"
"GENERATED VIA SPACETRACK.ORG API","18 SPCS","55101","SPACEBEE-159","PAYLOAD","U","23001CW","2023-12-05 03:51:49","813344","15.29847151","0.0014295","97.4533","38.7126","119.6113","240.6554","0","999","5115","0.0011043","0.00032038","0","4123878","0 SPACEBEE-159","1 55101U 23001CW  23339.16099321  .00032038  00000-0  11043-2 0  9996","2 55101  97.4533  38.7126 0014295 119.6113 240.6554 15.29847151 51156","2023-001CW","55101","6854.406","94.127","486.069","466.472","0"
"GENERATED VIA SPACETRACK.ORG API","18 SPCS","55101","SPACEBEE-159","PAYLOAD","U","23001CW","2023-12-06 03:24:37","28736","15.29908537","0.0014267","97.4534","39.6964","116.4084","243.8623","0","999","5130","0.0010353","0.0003008","0","4125534","0 SPACEBEE-159","1 55101U 23001CW  23340.14209524  .00030080  00000-0  10353-2 0  9992","2 55101  97.4534  39.6964 0014267 116.4084 243.8623 15.29908537 51303","2023-001CW","55101","6854.222","94.123","485.866","466.309","0"
"GENERATED VIA SPACETRACK.ORG API","18 SPCS","55101","SPACEBEE-159","PAYLOAD","U","23001CW","2023-12-07 02:57:21","62880","15.29962692","0.0014258","97.4536","40.6803","113.0949","247.1796","0","999","5145","0.00092053","0.0002677","0","4126616","0 SPACEBEE-159","1 55101U 23001CW  23341.12316045  .00026770  00000-0  92053-3 0  9997","2 55101  97.4536  40.6803 0014258 113.0949 247.1796 15.29962692 51458","2023-001CW","55101","6854.061","94.120","485.698","466.153","0"
"GENERATED VIA SPACETRACK.ORG API","18 SPCS","55101","SPACEBEE-159","PAYLOAD","U","23001CW","2023-12-07 02:57:21","62880","15.29962692","0.0014258","97.4536","40.6803","113.0949","247.1796","0","999","5145","0.00092053","0.0002677","0","4127218","0 SPACEBEE-159","1 55101U 23001CW  23341.12316045  .00026770  00000-0  92053-3 0  9997","2 55101  97.4536  40.6803 0014258 113.0949 247.1796 15.29962692 51458","2023-001CW","55101","6854.061","94.120","485.698","466.153","0"
"GENERATED VIA SPACETRACK.ORG API","18 SPCS","55101","SPACEBEE-159","PAYLOAD","U","23001CW","2023-12-08 04:04:13","64160","15.30008849","0.0015271","97.4543","41.7317","111.0906","249.1969","0","999","5161","0.00074502","0.00021678","0","4128072","0 SPACEBEE-159","1 55101U 23001CW  23342.16959565  .00021678  00000-0  74502-3 0  9993","2 55101  97.4543  41.7317 0015271 111.0906 249.1969 15.30008849 51614","2023-001CW","55101","6853.923","94.117","486.254","465.321","0"
